{
  "type": "FeatureCollection",
  "features": [
    {
      "type": "Feature",
      "properties": {
        "norad_id": 41581,
        "name": "INTELSAT 31 (IS-31)",
        "group": "intelsat",
        "lat": 0.020043233097109675,
        "lon": 56.23374554454373,
        "alt_km": 35793.68518615602,
        "timestamp": "2025-12-24T03:53:29.310314+00:00",
        "meta_object_name": "INTELSAT 31 (IS-31)",
        "meta_object_id": "2016-035A",
        "meta_epoch": "2025-12-23T13:22:23.770848",
        "meta_mean_motion": 1.00270103,
        "meta_eccentricity": 0.0001953,
        "meta_inclination": 0.029,
        "meta_ra_of_asc_node": 261.8543,
        "meta_arg_of_pericenter": 304.2314,
        "meta_mean_anomaly": 351.8,
        "meta_ephemeris_type": 0,
        "meta_classification_type": "U",
        "meta_norad_cat_id": 41581,
        "meta_element_set_no": 999,
        "meta_rev_at_epoch": 3492,
        "meta_bstar": 0,
        "meta_mean_motion_dot": -1.3e-06,
        "meta_mean_motion_ddot": 0,
        "tle_line1": "1 41581U 16035A   25357.55721957 -.00000130  00000+0  00000+0 0  9990",
        "tle_line2": "2 41581   0.0290 261.8543 0001953 304.2314 351.8000  1.00270103 34925"
      },
      "geometry": {
        "type": "Point",
        "coordinates": [
          56.23374554454373,
          0.020043233097109675
        ]
      }
    },
    {
      "type": "Feature",
      "properties": {
        "norad_id": 41747,
        "name": "INTELSAT 36 (IS-36)",
        "group": "intelsat",
        "lat": -0.01720087677215202,
        "lon": -140.21222294498125,
        "alt_km": 35787.561433231334,
        "timestamp": "2025-12-24T03:53:29.310326+00:00",
        "meta_object_name": "INTELSAT 36 (IS-36)",
        "meta_object_id": "2016-053A",
        "meta_epoch": "2025-12-23T20:08:01.498272",
        "meta_mean_motion": 1.00271079,
        "meta_eccentricity": 0.0001112,
        "meta_inclination": 0.0103,
        "meta_ra_of_asc_node": 7.4851,
        "meta_arg_of_pericenter": 318.5182,
        "meta_mean_anomaly": 137.1195,
        "meta_ephemeris_type": 0,
        "meta_classification_type": "U",
        "meta_norad_cat_id": 41747,
        "meta_element_set_no": 999,
        "meta_rev_at_epoch": 3419,
        "meta_bstar": 0,
        "meta_mean_motion_dot": -3e-08,
        "meta_mean_motion_ddot": 0,
        "tle_line1": "1 41747U 16053A   25357.83890623 -.00000003  00000+0  00000+0 0  9991",
        "tle_line2": "2 41747   0.0103   7.4851 0001112 318.5182 137.1195  1.00271079 34198"
      },
      "geometry": {
        "type": "Point",
        "coordinates": [
          -140.21222294498125,
          -0.01720087677215202
        ]
      }
    },
    {
      "type": "Feature",
      "properties": {
        "norad_id": 41945,
        "name": "INTELSAT 32E (IS-32E)",
        "group": "intelsat",
        "lat": 0.03187176046676187,
        "lon": 108.13351372172173,
        "alt_km": 35786.07529566992,
        "timestamp": "2025-12-24T03:53:29.310351+00:00",
        "meta_object_name": "INTELSAT 32E (IS-32E)",
        "meta_object_id": "2017-007B",
        "meta_epoch": "2025-12-23T16:21:03.290112",
        "meta_mean_motion": 1.0026875,
        "meta_eccentricity": 2.53e-05,
        "meta_inclination": 0.0225,
        "meta_ra_of_asc_node": 67.8207,
        "meta_arg_of_pericenter": 7.8321,
        "meta_mean_anomaly": 218.9086,
        "meta_ephemeris_type": 0,
        "meta_classification_type": "U",
        "meta_norad_cat_id": 41945,
        "meta_element_set_no": 999,
        "meta_rev_at_epoch": 3246,
        "meta_bstar": 0,
        "meta_mean_motion_dot": -2.48e-06,
        "meta_mean_motion_ddot": 0,
        "tle_line1": "1 41945U 17007B   25357.68128808 -.00000248  00000+0  00000+0 0  9994",
        "tle_line2": "2 41945   0.0225  67.8207 0000253   7.8321 218.9086  1.00268750 32463"
      },
      "geometry": {
        "type": "Point",
        "coordinates": [
          108.13351372172173,
          0.03187176046676187
        ]
      }
    },
    {
      "type": "Feature",
      "properties": {
        "norad_id": 42818,
        "name": "INTELSAT 35E (IS-35E)",
        "group": "intelsat",
        "lat": 0.044107581030734096,
        "lon": 116.7860015445932,
        "alt_km": 35795.568467933575,
        "timestamp": "2025-12-24T03:53:29.310365+00:00",
        "meta_object_name": "INTELSAT 35E (IS-35E)",
        "meta_object_id": "2017-041A",
        "meta_epoch": "2025-12-23T18:06:15.717312",
        "meta_mean_motion": 1.00267135,
        "meta_eccentricity": 0.0002011,
        "meta_inclination": 0.0217,
        "meta_ra_of_asc_node": 25.0924,
        "meta_arg_of_pericenter": 254.8492,
        "meta_mean_anomaly": 49.6559,
        "meta_ephemeris_type": 0,
        "meta_classification_type": "U",
        "meta_norad_cat_id": 42818,
        "meta_element_set_no": 999,
        "meta_rev_at_epoch": 3105,
        "meta_bstar": 0,
        "meta_mean_motion_dot": 0,
        "meta_mean_motion_ddot": 0,
        "tle_line1": "1 42818U 17041A   25357.75434858  .00000000  00000+0  00000+0 0  9990",
        "tle_line2": "2 42818   0.0217  25.0924 0002011 254.8492  49.6559  1.00267135 31057"
      },
      "geometry": {
        "type": "Point",
        "coordinates": [
          116.7860015445932,
          0.044107581030734096
        ]
      }
    },
    {
      "type": "Feature",
      "properties": {
        "norad_id": 42950,
        "name": "INTELSAT 37E (IS-37E)",
        "group": "intelsat",
        "lat": 0.03801151496419986,
        "lon": 133.27996071607228,
        "alt_km": 35794.63886248846,
        "timestamp": "2025-12-24T03:53:29.310377+00:00",
        "meta_object_name": "INTELSAT 37E (IS-37E)",
        "meta_object_id": "2017-059A",
        "meta_epoch": "2025-12-23T18:11:00.261024",
        "meta_mean_motion": 1.00270032,
        "meta_eccentricity": 0.0003018,
        "meta_inclination": 0.0205,
        "meta_ra_of_asc_node": 15.4009,
        "meta_arg_of_pericenter": 246.8432,
        "meta_mean_anomaly": 85.0521,
        "meta_ephemeris_type": 0,
        "meta_classification_type": "U",
        "meta_norad_cat_id": 42950,
        "meta_element_set_no": 999,
        "meta_rev_at_epoch": 3030,
        "meta_bstar": 0,
        "meta_mean_motion_dot": 0,
        "meta_mean_motion_ddot": 0,
        "tle_line1": "1 42950U 17059A   25357.75764191  .00000000  00000+0  00000+0 0  9992",
        "tle_line2": "2 42950   0.0205  15.4009 0003018 246.8432  85.0521  1.00270032 30301"
      },
      "geometry": {
        "type": "Point",
        "coordinates": [
          133.27996071607228,
          0.03801151496419986
        ]
      }
    },
    {
      "type": "Feature",
      "properties": {
        "norad_id": 43632,
        "name": "AZERSPACE 2 (IS-38)",
        "group": "intelsat",
        "lat": -0.008913940513585175,
        "lon": -163.6017357000004,
        "alt_km": 35785.186584228744,
        "timestamp": "2025-12-24T03:53:29.310389+00:00",
        "meta_object_name": "AZERSPACE 2 (IS-38)",
        "meta_object_id": "2018-074A",
        "meta_epoch": "2025-12-23T18:28:58.539936",
        "meta_mean_motion": 1.00270494,
        "meta_eccentricity": 0.0001258,
        "meta_inclination": 0.0176,
        "meta_ra_of_asc_node": 359.5683,
        "meta_arg_of_pericenter": 273.6639,
        "meta_mean_anomaly": 141.6738,
        "meta_ephemeris_type": 0,
        "meta_classification_type": "U",
        "meta_norad_cat_id": 43632,
        "meta_element_set_no": 999,
        "meta_rev_at_epoch": 2668,
        "meta_bstar": 0,
        "meta_mean_motion_dot": 1.58e-06,
        "meta_mean_motion_ddot": 0,
        "tle_line1": "1 43632U 18074A   25357.77012199  .00000158  00000+0  00000+0 0  9998",
        "tle_line2": "2 43632   0.0176 359.5683 0001258 273.6639 141.6738  1.00270494 26684"
      },
      "geometry": {
        "type": "Point",
        "coordinates": [
          -163.6017357000004,
          -0.008913940513585175
        ]
      }
    },
    {
      "type": "Feature",
      "properties": {
        "norad_id": 43633,
        "name": "HORIZONS-3E",
        "group": "intelsat",
        "lat": 0.009806163189652408,
        "lon": -39.70943868500288,
        "alt_km": 35784.26236244157,
        "timestamp": "2025-12-24T03:53:29.310401+00:00",
        "meta_object_name": "HORIZONS-3E",
        "meta_object_id": "2018-074B",
        "meta_epoch": "2025-12-23T03:39:48.312000",
        "meta_mean_motion": 1.00269863,
        "meta_eccentricity": 5.63e-05,
        "meta_inclination": 0.0111,
        "meta_ra_of_asc_node": 213.5125,
        "meta_arg_of_pericenter": 95.1186,
        "meta_mean_anomaly": 7.2553,
        "meta_ephemeris_type": 0,
        "meta_classification_type": "U",
        "meta_norad_cat_id": 43633,
        "meta_element_set_no": 999,
        "meta_rev_at_epoch": 2657,
        "meta_bstar": 0,
        "meta_mean_motion_dot": 0,
        "meta_mean_motion_ddot": 0,
        "tle_line1": "1 43633U 18074B   25357.15264250  .00000000  00000+0  00000+0 0  9994",
        "tle_line2": "2 43633   0.0111 213.5125 0000563  95.1186   7.2553  1.00269863 26574"
      },
      "geometry": {
        "type": "Point",
        "coordinates": [
          -39.70943868500288,
          0.009806163189652408
        ]
      }
    }
  ]
}